{
    "links": {
        "self": "http://www.neowsapp.com/rest/v1/neo/3620668?api_key=iIulBulltgU6a56xZRHN4H3l9WmuAYTsLGpBGhQ2"
    },
    "id": "3620668",
    "neo_reference_id": "3620668",
    "name": "(2012 XQ111)",
    "designation": "2012 XQ111",
    "nasa_jpl_url": "http://ssd.jpl.nasa.gov/sbdb.cgi?sstr=3620668",
    "absolute_magnitude_h": 23.8,
    "estimated_diameter": {
        "kilometers": {
            "estimated_diameter_min": 0.046190746,
            "estimated_diameter_max": 0.1032856481
        },
        "meters": {
            "estimated_diameter_min": 46.1907460282,
            "estimated_diameter_max": 103.2856480504
        },
        "miles": {
            "estimated_diameter_min": 0.0287015901,
            "estimated_diameter_max": 0.0641787064
        },
        "feet": {
            "estimated_diameter_min": 151.544447199,
            "estimated_diameter_max": 338.8636855496
        }
    },
    "is_potentially_hazardous_asteroid": false,
    "close_approach_data": [
        {
            "close_approach_date": "1982-12-26",
            "close_approach_date_full": "1982-Dec-26 08:45",
            "epoch_date_close_approach": 409740300000,
            "relative_velocity": {
                "kilometers_per_second": "5.889931576",
                "kilometers_per_hour": "21203.7536737394",
                "miles_per_hour": "13175.187942441"
            },
            "miss_distance": {
                "astronomical": "0.2001046755",
                "lunar": "77.8407187695",
                "kilometers": "29935233.231841185",
                "miles": "18600891.395470953"
            },
            "orbiting_body": "Earth"
        },
        {
            "close_approach_date": "1997-12-30",
            "close_approach_date_full": "1997-Dec-30 06:09",
            "epoch_date_close_approach": 883462140000,
            "relative_velocity": {
                "kilometers_per_second": "6.6000793808",
                "kilometers_per_hour": "23760.285770883",
                "miles_per_hour": "14763.7175669134"
            },
            "miss_distance": {
                "astronomical": "0.3177241176",
                "lunar": "123.5946817464",
                "kilometers": "47530851.240589512",
                "miles": "29534301.4371467856"
            },
            "orbiting_body": "Earth"
        },
        {
            "close_approach_date": "2012-12-30",
            "close_approach_date_full": "2012-Dec-30 07:23",
            "epoch_date_close_approach": 1356852180000,
            "relative_velocity": {
                "kilometers_per_second": "5.3850432974",
                "kilometers_per_hour": "19386.155870789",
                "miles_per_hour": "12045.8033520466"
            },
            "miss_distance": {
                "astronomical": "0.1907742041",
                "lunar": "74.2111653949",
                "kilometers": "28539414.584305267",
                "miles": "17733569.9061240046"
            },
            "orbiting_body": "Earth"
        },
        {
            "close_approach_date": "2027-12-19",
            "close_approach_date_full": "2027-Dec-19 05:56",
            "epoch_date_close_approach": 1829195760000,
            "relative_velocity": {
                "kilometers_per_second": "10.2453910174",
                "kilometers_per_hour": "36883.4076628196",
                "miles_per_hour": "22917.9151669337"
            },
            "miss_distance": {
                "astronomical": "0.3416464936",
                "lunar": "132.9004860104",
                "kilometers": "51109587.735528632",
                "miles": "31758025.1796618416"
            },
            "orbiting_body": "Earth"
        },
        {
            "close_approach_date": "2188-12-27",
            "close_approach_date_full": "2188-Dec-27 14:15",
            "epoch_date_close_approach": 6910668900000,
            "relative_velocity": {
                "kilometers_per_second": "9.5707676688",
                "kilometers_per_hour": "34454.7636075949",
                "miles_per_hour": "21408.8501982858"
            },
            "miss_distance": {
                "astronomical": "0.3874635755",
                "lunar": "150.7233308695",
                "kilometers": "57963725.597384185",
                "miles": "36016988.956244353"
            },
            "orbiting_body": "Earth"
        }
    ],
    "orbital_data": {
        "orbit_id": "10",
        "orbit_determination_date": "2017-04-06 08:47:41",
        "first_observation_date": "2012-12-10",
        "last_observation_date": "2013-01-15",
        "data_arc_in_days": 36,
        "observations_used": 30,
        "orbit_uncertainty": "6",
        "minimum_orbit_intersection": ".167861",
        "jupiter_tisserand_invariant": "3.312",
        "epoch_osculation": "2459000.5",
        "eccentricity": ".5252063216847712",
        "semi_major_axis": "2.406920488714896",
        "inclination": "6.651456286679007",
        "ascending_node_longitude": "254.1041967722542",
        "orbital_period": "1363.926736055217",
        "perihelion_distance": "1.142790632249234",
        "perihelion_argument": "207.5597327275405",
        "aphelion_distance": "3.671050345180559",
        "perihelion_time": "2459029.273003315033",
        "mean_anomaly": "352.4055442865131",
        "mean_motion": ".2639437958678051",
        "equinox": "J2000",
        "orbit_class": {
            "orbit_class_type": "AMO",
            "orbit_class_description": "Near-Earth asteroid orbits similar to that of 1221 Amor",
            "orbit_class_range": "1.017 AU < q (perihelion) < 1.3 AU"
        }
    },
    "is_sentry_object": false
}